COSMOS 2426 (717)       
1 29671U 06062B   19133.60522939 -.00000012  00000-0  10000-3 0  9990
2 29671  65.1399 281.4611 0018008 159.8472 173.8790  2.13103015 96350
COSMOS 2433 (720)       
1 32275U 07052A   19134.03451091 -.00000073  00000-0  10000-3 0  9999
2 32275  65.8378  42.2794 0003319 290.8260 348.7023  2.13104474 89874
COSMOS 2432 (719)       
1 32276U 07052B   19133.50378263 -.00000071  00000-0  10000-3 0  9998
2 32276  65.8496  42.3798 0012470 334.0428 209.5005  2.13103972 89861
COSMOS 2434 (721)       
1 32393U 07065A   19134.34425860 -.00000024  00000-0  00000+0 0  9994
2 32393  64.7386 280.1495 0005281  99.5036 305.1174  2.13103049 88597
COSMOS 2436 (723)       
1 32395U 07065C   19133.78750748 -.00000016  00000-0  10000-3 0  9995
2 32395  64.7483 280.2228 0016127   6.3401  23.2687  2.13104411 88518
COSMOS 2456 (730)       
1 36111U 09070A   19134.16081250  .00000099  00000-0  00000+0 0  9996
2 36111  64.1970 159.7891 0006200 303.5433 133.3367  2.13102969 73256
COSMOS 2457 (733)       
1 36112U 09070B   19133.82253644  .00000097  00000-0  00000+0 0  9995
2 36112  64.1800 159.7049 0005265 192.4196 110.1915  2.13101616 73244
COSMOS 2459 (731)       
1 36400U 10007A   19133.63035509 -.00000072  00000-0  10000-3 0  9993
2 36400  65.7439  41.3155 0027930 350.7780 194.9423  2.13102331 71599
COSMOS 2461 (735)       
1 36401U 10007B   19133.89478166 -.00000073  00000-0  10000-3 0  9993
2 36401  65.7369  41.2782 0007510  51.5277 247.5823  2.13102316 71598
COSMOS 2460 (732)       
1 36402U 10007C   19134.29806025 -.00000075  00000-0  10000-3 0  9990
2 36402  65.7266  41.2293 0001882 351.2264 297.2262  2.13101589 71606
COSMOS 2464 (736)       
1 37139U 10041C   19133.58911596 -.00000014  00000-0  00000+0 0  9995
2 37139  64.3384 279.8145 0025529  15.9691  35.8654  2.13100711 67665
COSMOS 2474 (742)       
1 37829U 11055A   19134.16055622  .00000099  00000-0  00000+0 0  9993
2 37829  64.5196 160.6465 0010723 252.5956  40.6917  2.13101992 59242
COSMOS 2476 (744)       
1 37867U 11064A   19133.38257814  .00000094  00000-0  00000-0 0  9991
2 37867  64.4991 160.7263 0020655 243.9107 218.6720  2.13102053 58584
COSMOS 2477 (745)       
1 37868U 11064B   19134.13023573  .00000099  00000-0  00000+0 0  9993
2 37868  64.5076 160.7546 0018361 245.4491 249.4099  2.13101812 58558
COSMOS 2475 (743)       
1 37869U 11064C   19133.54521503  .00000095  00000-0  00000+0 0  9990
2 37869  64.5151 160.7716 0022842 266.0548  97.0351  2.13102072 58550
COSMOS 2485 (747)       
1 39155U 13019A   19134.49979521  .00000101  00000-0  00000+0 0  9992
2 39155  64.6688 160.8696 0021073 239.3359  45.0738  2.13102000 47070
COSMOS 2492 (754)       
1 39620U 14012A   19134.20668950 -.00000075  00000-0  10000-3 0  9999
2 39620  65.6167  41.0703 0015654 329.8191 124.8004  2.13103428 40021
COSMOS 2500 (755)       
1 40001U 14032A   19134.48971416 -.00000076  00000-0  00000+0 0  9996
2 40001  65.5587  41.0043 0004752 218.6169 314.6324  2.13102862 38241
COSMOS 2501 (702K)      
1 40315U 14075A   19133.88913059 -.00000018  00000-0  00000+0 0  9999
2 40315  64.0592 280.8986 0015270 203.2188  27.5661  2.13098629 34634
COSMOS 2514 (751)       
1 41330U 16008A   19133.79139020 -.00000073  00000-0  00000+0 0  9994
2 41330  65.3607  41.0017 0008472 225.6284 313.5044  2.13103270 25391
COSMOS 2516 (753)       
1 41554U 16032A   19133.78925574 -.00000017  00000-0  00000+0 0  9993
2 41554  64.2840 280.8603 0011177 211.6251 216.4803  2.13101720 23003
COSMOS 2522 (752)       
1 42939U 17055A   19134.16025527 -.00000021  00000-0  00000+0 0  9994
2 42939  64.5140 280.9101 0005682 240.8768 338.3422  2.13101955 12764
COSMOS 2527 (756)       
1 43508U 18053A   19133.63736824  .00000096  00000-0  00000-0 0  9998
2 43508  64.8335 160.6622 0008926 243.3302 325.8670  2.13102725  7041
COSMOS 2529 (757)       
1 43687U 18086A   19134.45091771 -.00000025  00000-0  00000+0 0  9990
2 43687  64.7281 280.9116 0008090 273.5586 124.3543  2.13102008  4089
